{
    "links": {
        "self": "http://www.neowsapp.com/rest/v1/neo/54017294?api_key=iIulBulltgU6a56xZRHN4H3l9WmuAYTsLGpBGhQ2"
    },
    "id": "54017294",
    "neo_reference_id": "54017294",
    "name": "(2020 KS6)",
    "designation": "2020 KS6",
    "nasa_jpl_url": "http://ssd.jpl.nasa.gov/sbdb.cgi?sstr=54017294",
    "absolute_magnitude_h": 22.667,
    "estimated_diameter": {
        "kilometers": {
            "estimated_diameter_min": 0.077831424,
            "estimated_diameter_max": 0.174036355
        },
        "meters": {
            "estimated_diameter_min": 77.8314240456,
            "estimated_diameter_max": 174.0363549515
        },
        "miles": {
            "estimated_diameter_min": 0.0483621898,
            "estimated_diameter_max": 0.1081411439
        },
        "feet": {
            "estimated_diameter_min": 255.3524492656,
            "estimated_diameter_max": 570.9854347791
        }
    },
    "is_potentially_hazardous_asteroid": false,
    "close_approach_data": [
        {
            "close_approach_date": "2020-06-03",
            "close_approach_date_full": "2020-Jun-03 04:20",
            "epoch_date_close_approach": 1591158000000,
            "relative_velocity": {
                "kilometers_per_second": "29.4583679173",
                "kilometers_per_hour": "106050.1245022472",
                "miles_per_hour": "65895.423194188"
            },
            "miss_distance": {
                "astronomical": "0.1084671247",
                "lunar": "42.1937115083",
                "kilometers": "16226450.820144389",
                "miles": "10082649.0009910082"
            },
            "orbiting_body": "Earth"
        }
    ],
    "orbital_data": {
        "orbit_id": "7",
        "orbit_determination_date": "2020-06-23 15:05:15",
        "first_observation_date": "2020-05-28",
        "last_observation_date": "2020-06-14",
        "data_arc_in_days": 17,
        "observations_used": 65,
        "orbit_uncertainty": "8",
        "minimum_orbit_intersection": ".0848666",
        "jupiter_tisserand_invariant": "2.787",
        "epoch_osculation": "2458999.5",
        "eccentricity": ".6208349796052252",
        "semi_major_axis": "2.51108631896969",
        "inclination": "48.94947590055363",
        "ascending_node_longitude": "71.77252810280392",
        "orbital_period": "1453.419188978826",
        "perihelion_distance": ".9521160953451827",
        "perihelion_argument": "129.3098576937974",
        "aphelion_distance": "4.070056542594198",
        "perihelion_time": "2458965.789918537452",
        "mean_anomaly": "8.349710406014237",
        "mean_motion": ".2476917896294849",
        "equinox": "J2000",
        "orbit_class": {
            "orbit_class_type": "APO",
            "orbit_class_description": "Near-Earth asteroid orbits which cross the Earth’s orbit similar to that of 1862 Apollo",
            "orbit_class_range": "a (semi-major axis) > 1.0 AU; q (perihelion) < 1.017 AU"
        }
    },
    "is_sentry_object": false
}